satname,norad_id,inclination_deg,eccentricity,mean_motion_rev_per_day,perigee_km,apogee_km,l1,l2
STARLINK-1302,45375,53.0546,0.0001398,15.06389115,546.2767507041463,548.2130874887253,1 45375U 20019R   25306.45711786  .00012710  00000+0  87090-3 0  9998,2 45375  53.0546  17.7878 0001398  72.0572 288.0569 15.06389115310552
STARLINK-1304,45376,53.0548,0.0001335,15.06398833,546.2906001175352,548.1396691374803,1 45376U 20019S   25306.47554727  .00013849  00000+0  94684-3 0  9992,2 45376  53.0548  17.7032 0001335  96.2575 263.8566 15.06398833310554
STARLINK-1305,45377,53.0563,0.0002272,15.31398229,470.08343732303274,473.19597585850806,1 45377U 20019T   25306.45025852  .00023909  00000+0  78701-3 0  9993,2 45377  53.0563  15.1757 0002272  60.9819 299.1409 15.31398229310597
STARLINK-1319,45379,53.0541,0.0001584,15.2435978,491.62022213400815,493.79690600870526,1 45379U 20019V   25306.58335647  .02043079  00000+0  74116-1 0  9991,2 45379  53.0541  16.6569 0001584  86.2720 332.0937 15.24359780  5842
STARLINK-1266,45383,53.0555,0.0001744,15.06366888,546.1052448206729,548.5208417957783,1 45383U 20019Z   25306.42946385  .00004711  00000+0  33527-3 0  9997,2 45383  53.0555 357.9140 0001744  82.9750 277.1437 15.06366888310820
STARLINK-1267,45384,53.055,0.0001344,15.06395112,546.2957701351443,548.157307854427,1 45384U 20019AA  25306.41481378  .00011397  00000+0  78287-3 0  9993,2 45384  53.0550 358.6359 0001344  87.1297 272.9846 15.06395112310813
STARLINK-1272,45386,53.0543,0.0002123,15.33769273,463.1258276562403,466.0312446728967,1 45386U 20019AC  25306.44976440  .00061687  00000+0  18584-2 0  9997,2 45386  53.0543 355.3107 0002123  33.9567 326.1569 15.33769273310869
STARLINK-1274,45387,53.0373,0.0002989,15.2917054,476.2411895157902,480.33996192055474,1 45387U 20019AD  25306.48472962  .00059109  00000+0  20558-2 0  9992,2 45387  53.0373 342.5987 0002989 269.3453  90.7203 15.29170540311042
STARLINK-1280,45388,53.0551,0.000223,15.39370001,446.4488857187116,449.4933299348022,1 45388U 20019AE  25306.45221719  .00066526  00000+0  16721-2 0  9990,2 45388  53.0551  14.7192 0002230  23.2965 336.8139 15.39370001310586
STARLINK-1283,45389,53.0541,0.0003728,15.30287975,472.397572781264,477.5072362412684,1 45389U 20019AF  25306.42438111  .00060897  00000+0  20455-2 0  9998,2 45389  53.0541 354.0679 0003728  17.5296 342.5831 15.30287975310886
STARLINK-1284,45390,53.0552,0.0001303,15.0639475,546.3252734651733,548.1300234925666,1 45390U 20019AG  25306.43316329  .00003596  00000+0  26019-3 0  9993,2 45390  53.0552 357.8984 0001303  85.9078 274.2060 15.06394750310826
STARLINK-1292,45394,53.0422,0.0008065,15.96628898,278.4066547072862,289.1523260062313,1 45394U 20019AL  25306.58335647  .00393663  74065-4  90939-3 0  9993,2 45394  53.0422 306.0023 0008065  30.0396 297.1176 15.96628898  6064
STARLINK-1297,45395,53.0557,0.0001357,15.06394989,546.2871440907365,548.1666878575306,1 45395U 20019AM  25306.47001671  .00002486  00000+0  18573-3 0  9996,2 45395  53.0557 357.7297 0001357  89.7230 270.3914 15.06394989310013
STARLINK-1307,45397,53.0554,0.0001407,15.06470929,546.0198133413896,547.9685452552449,1 45397U 20019AP  25306.39627447  .00061694  00000+0  41168-2 0  9995,2 45397  53.0554 358.0608 0001407 111.0113 249.1026 15.06470929310643
STARLINK-1312,45398,53.0393,0.0005173,16.03057188,262.52096755409366,269.39494819751235,1 45398U 20019AQ  25306.46129932  .00712443  25334-3  11401-2 0  9993,2 45398  53.0393 305.7198 0005173  42.5342 317.6089 16.03057188311315
STARLINK-1255,45399,53.0497,0.0002082,15.30289551,473.52088707984603,476.37451154864175,1 45399U 20019AR  25306.43295973  .00058826  00000+0  19769-2 0  9992,2 45399  53.0497 345.1187 0002082  41.0768 319.0388 15.30289551310811
STARLINK-1260,45404,53.0545,0.0001337,15.06400747,546.2833496957128,548.1351872879077,1 45404U 20019AW  25306.39721589  .00002513  00000+0  18754-3 0  9997,2 45404  53.0545 348.0554 0001337  83.8808 276.2333 15.06400747310676
STARLINK-1263,45405,53.0555,0.0001255,15.06390664,546.3710367463927,548.1093064164588,1 45405U 20019AX  25306.38247785  .00005376  00000+0  37959-3 0  9996,2 45405  53.0555 348.1239 0001255  83.4750 276.6382 15.06390664310674
STARLINK-1265,45406,53.055,0.000127,15.06406635,546.3117060092509,548.0707393778148,1 45406U 20019AY  25306.38984698  .00003689  00000+0  26636-3 0  9993,2 45406  53.0550 348.0903 0001270  82.6801 277.4332 15.06406635310672
STARLINK-1278,45408,53.0555,0.0002146,15.33211805,464.76828399077203,467.70588934877105,1 45408U 20019BA  25306.50485017  .00049041  00000+0  15085-2 0  9997,2 45408  53.0555  15.0040 0002146  10.6165 349.4880 15.33211805310311
STARLINK-1296,45412,53.0563,0.0001674,15.06399457,546.0539185283824,548.37252578276,1 45412U 20019BE  25306.39353148  .00001548  00000+0  12277-3 0  9999,2 45412  53.0563 348.0721 0001674  92.2890 267.8291 15.06399457310674
STARLINK-1298,45413,53.0482,0.0008295,15.52950141,402.48867156300275,413.74706839229566,1 45413U 20019BF  25306.37647470  .00118242  00000+0  18442-2 0  9991,2 45413  53.0482 323.6585 0008295 321.9129  38.1293 15.52950141311110
STARLINK-1309,45414,53.0558,0.0001436,15.06391747,546.2423686249185,548.2313359953014,1 45414U 20019BG  25306.40828264  .00007708  00000+0  53590-3 0  9996,2 45414  53.0558 348.0092 0001436  82.5153 277.5999 15.06391747310667
STARLINK-1316,45415,53.0556,0.0001389,15.06396943,546.2589950027432,548.1828594349245,1 45415U 20019BH  25306.43407596  .00005056  00000+0  35809-3 0  9998,2 45415  53.0556 347.8922 0001389 104.7127 255.4016 15.06396943310703
STARLINK-1318,45416,53.051,0.0005306,15.60481529,382.675970915172,389.85435449023316,1 45416U 20019BJ  25306.22531273  .00047312  00000+0  56682-3 0  9999,2 45416  53.0510 315.8147 0005306  40.3193 319.8212 15.60481529311124
STARLINK-1286,45417,53.055,0.0001048,15.35418699,458.96052333122407,460.39372917208584,1 45417U 20019BK  25306.58335647  .00056923  00000+0  16294-2 0  9998,2 45417  53.0550  15.1371 0001048  67.0369 168.1211 15.35418699  5885
STARLINK-1308,45419,53.0552,0.0001518,15.06396399,546.1713249201775,548.2738640930702,1 45419U 20019BM  25306.46816404  .00002244  00000+0  16954-3 0  9993,2 45419  53.0552  17.7358 0001518  97.7191 262.3970 15.06396399310290
STARLINK-1329,45531,53.0541,0.0001287,15.0639579,546.3331669919453,548.1157550320104,1 45531U 20025A   25306.43683786  .00006850  00000+0  47834-3 0  9995,2 45531  53.0541 317.8807 0001287  79.0954 281.0180 15.06395790305917
STARLINK-1338,45532,53.0545,0.0001464,15.06406872,546.1766283826319,548.2043642735562,1 45532U 20025B   25306.44789981  .00004272  00000+0  30543-3 0  9996,2 45532  53.0545 317.8273 0001464  83.6582 276.4574 15.06406872305913
STARLINK-1350,45535,53.0735,0.0001727,15.32301333,467.76554750064406,470.1305306731456,1 45535U 20025E   25306.18094348  .00013476  00000+0  43701-3 0  9992,2 45535  53.0735 270.3018 0001727  65.6284 294.4896 15.32301333306584
STARLINK-1362,45538,53.0556,0.0001572,15.06390758,546.1512142359206,548.3285527280877,1 45538U 20025H   25306.48010041  .00001183  00000+0  98327-4 0  9993,2 45538  53.0556 317.4050 0001572  94.0605 266.0564 15.06390758305922
STARLINK-1368,45540,53.0563,0.0001535,15.06390058,546.1789832230161,548.3050745848886,1 45540U 20025K   25306.35206676  .00000259  00000+0  36265-4 0  9999,2 45540  53.0563 318.2623 0001535  98.4420 261.6743 15.06390058305899
STARLINK-1371,45542,53.0539,0.000152,15.06405313,546.1426239006396,548.2479249120588,1 45542U 20025M   25306.45525890 -.00002786  00000+0 -16816-3 0  9992,2 45542  53.0539 317.7960 0001520 119.6688 240.4453 15.06405313305915
STARLINK-1372,45543,53.0563,0.0001594,15.06393071,546.1288904614912,548.336698351949,1 45543U 20025N   25306.35943929  .00000509  00000+0  53070-4 0  9992,2 45543  53.0563 318.2282 0001594  92.7967 267.3204 15.06393071304994
STARLINK-1373,45544,53.0544,0.0001509,15.06401096,546.1631642676593,548.2532334486741,1 45544U 20025P   25306.44421795  .00002551  00000+0  19010-3 0  9999,2 45544  53.0544 317.8439 0001509  95.9472 264.1689 15.06401096305917
STARLINK-1294,45551,53.0479,0.0008319,15.60019172,381.97323009976935,393.2300660624469,1 45551U 20025W   25306.58335647  .00019762  00000+0  24526-3 0  9992,2 45551  53.0479 249.5583 0008319  60.7120 152.2112 15.60019172  5936
STARLINK-1325,45554,53.0549,0.0001651,15.6159358,381.93710558594466,384.1696506487988,1 45554U 20025Z   25306.58335647  .00123742  00000+0  13983-2 0  9993,2 45554  53.0549 242.4799 0001651 121.2915 280.1811 15.61593580  5988
STARLINK-1327,45555,53.0544,0.0001517,15.06395227,546.1756089390674,548.2767641298615,1 45555U 20025AA  25306.21753366 -.00000102  00000+0  12039-4 0  9994,2 45555  53.0544 298.8623 0001517  84.5215 275.5947 15.06395227306158
STARLINK-1356,45564,53.0556,0.0001389,15.06395129,546.264553903623,548.1884198802827,1 45564U 20025AK  25306.28756466  .00000879  00000+0  77893-4 0  9994,2 45564  53.0556 298.5468 0001389  87.4337 272.6811 15.06395129306169
STARLINK-1357,45565,53.062,0.0007762,15.32544681,462.90905690007,473.5373464771719,1 45565U 20025AL  25306.21864503  .00100466  00000+0  31199-2 0  9990,2 45565  53.0620 283.5961 0007762   5.8048 354.3042 15.32544681306373
STARLINK-1361,45567,53.0556,0.0001529,15.06393322,546.1731361981383,548.2909140460215,1 45567U 20025AN  25306.30600034  .00000198  00000+0  32203-4 0  9999,2 45567  53.0556 298.4651 0001529  88.1329 271.9835 15.06393322306172
STARLINK-1363,45568,53.0541,0.000189,15.4122732,441.19685424612635,443.77504972197585,1 45568U 20025AP  25306.29760077  .00103550  00000+0  24311-2 0  9997,2 45568  53.0541 295.6915 0001890  93.3454 266.7767 15.41227320306200
STARLINK-1366,45569,53.0527,0.0002106,15.398826,445.0189060261391,447.89342466738253,1 45569U 20025AQ  25306.25987603  .00124642  00000+0  30486-2 0  9995,2 45569  53.0527 295.3366 0002106  69.7035 290.4195 15.39882600306209
